{
    "links": {
        "self": "http://www.neowsapp.com/rest/v1/neo/54016233?api_key=iIulBulltgU6a56xZRHN4H3l9WmuAYTsLGpBGhQ2"
    },
    "id": "54016233",
    "neo_reference_id": "54016233",
    "name": "(2020 FP1)",
    "designation": "2020 FP1",
    "nasa_jpl_url": "http://ssd.jpl.nasa.gov/sbdb.cgi?sstr=54016233",
    "absolute_magnitude_h": 23.551,
    "estimated_diameter": {
        "kilometers": {
            "estimated_diameter_min": 0.0518030078,
            "estimated_diameter_max": 0.1158350469
        },
        "meters": {
            "estimated_diameter_min": 51.8030078009,
            "estimated_diameter_max": 115.8350468818
        },
        "miles": {
            "estimated_diameter_min": 0.0321888868,
            "estimated_diameter_max": 0.0719765389
        },
        "feet": {
            "estimated_diameter_min": 169.9573801136,
            "estimated_diameter_max": 380.0362552118
        }
    },
    "is_potentially_hazardous_asteroid": false,
    "close_approach_data": [
        {
            "close_approach_date": "2020-03-26",
            "close_approach_date_full": "2020-Mar-26 03:39",
            "epoch_date_close_approach": 1585193940000,
            "relative_velocity": {
                "kilometers_per_second": "21.4261470281",
                "kilometers_per_hour": "77134.1293011395",
                "miles_per_hour": "47928.1482871441"
            },
            "miss_distance": {
                "astronomical": "0.1705583072",
                "lunar": "66.3471815008",
                "kilometers": "25515159.467925664",
                "miles": "15854384.9157716032"
            },
            "orbiting_body": "Earth"
        }
    ],
    "orbital_data": {
        "orbit_id": "1",
        "orbit_determination_date": "2020-03-18 09:42:07",
        "first_observation_date": "2020-03-16",
        "last_observation_date": "2020-03-18",
        "data_arc_in_days": 2,
        "observations_used": 24,
        "orbit_uncertainty": "9",
        "minimum_orbit_intersection": ".116924",
        "jupiter_tisserand_invariant": "4.030",
        "epoch_osculation": "2458925.5",
        "eccentricity": ".5081854352967774",
        "semi_major_axis": "1.602551554723065",
        "inclination": "34.95322449110912",
        "ascending_node_longitude": "175.4031889227273",
        "orbital_period": "740.9969862393928",
        "perihelion_distance": ".7881581953005968",
        "perihelion_argument": "92.3795529553156",
        "aphelion_distance": "2.416944914145533",
        "perihelion_time": "2458997.981365113498",
        "mean_anomaly": "324.786238101609",
        "mean_motion": ".4858319354671375",
        "equinox": "J2000",
        "orbit_class": {
            "orbit_class_type": "APO",
            "orbit_class_description": "Near-Earth asteroid orbits which cross the Earth’s orbit similar to that of 1862 Apollo",
            "orbit_class_range": "a (semi-major axis) > 1.0 AU; q (perihelion) < 1.017 AU"
        }
    },
    "is_sentry_object": false
}